#aV2016 10 14 23 35  0.00000000     299 ORBIT TRS   UNK UNKN GPST      
## 1918 516899.99999998   300.00000000 57675 0.9826388888889
+   76   C01C02C03C04C05C06C07C08C09C10C11C12C14E08E09E11E19
+        E22E24E26E30G01G02G03G04G05G06G07G08G09G10G11G12G13
+        G14G15G16G17G18G19G20G21G22G23G24G25G26G27G28G29G30
+        G31G32R01R02R03R04R05R06R07R08R09R10R11R12R13R14R15
+        R16R17R18R19R20R21R22R24  0  0  0  0  0  0  0  0  0
++         0  0  0  0  0  0  0  0  0  0  0  0  0  0  0  0  0
++         0  0  0  0  0  0  0  0  0  0  0  0  0  0  0  0  0
++         0  0  0  0  0  0  0  0  0  0  0  0  0  0  0  0  0
++         0  0  0  0  0  0  0  0  0  0  0  0  0  0  0  0  0
++         0  0  0  0  0  0  0  0  0  0  0  0  0  0  0  0  0
%c M  cc ccc ccc cccc cccc cccc cccc ccccc ccccc ccccc ccccc
/* generated by PANDA 
*  2016 10 15 11 25  0.00000000
PC01 -32352.940878  27049.347187   -537.467347      0.000000   0   0
VC01      0.547902     -0.609811      0.070682      0.000000
PC02   4312.241482  41925.450196   -278.925663      0.000000   0   0
VC02     -0.202699     -0.795482     -0.057324      0.000000
PC03 -14703.992382  39484.185869   -970.464761      0.000000   0   0
VC03      0.169450     -0.804715      0.013337      0.000000
PC04 -39663.118687  14368.275967   -580.532838      0.000000   0   0
VC04      0.723988     -0.384606      0.027154      0.000000
PC05  21841.509035  36040.398170   -506.814764      0.000000   0   0
VC05     -0.524423     -0.633909     -0.088864      0.000000
PC06 -18488.095061  22098.792498  30860.548803      0.000000   0   0
VC06     -0.847102      0.071087     -1.095071      0.000000
PC07 -20148.552216  37252.194730   -132.108441      0.000000   0   0
VC07      1.388290     -0.161361      2.457544      0.000000
PC08  -7000.454100  27444.356414 -31127.786538      0.000000   0   0
VC08      0.012967     -1.975763     -1.251817      0.000000
PC09  -1413.643711  24440.983720  34425.448244      0.000000   0   0
VC09     -1.322259     -0.528065     -0.026463      0.000000
PC10  -9746.192288  39003.032771 -13112.949889      0.000000   0   0
VC10      0.878810      0.192953      2.270098      0.000000
PC11  -4948.469232  16342.494126 -22014.558528      0.000000   0   0
VC11     -1.701036     -2.149845     -0.963650      0.000000
PC12 -19463.612732   -813.532479 -19992.645143      0.000000   0   0
VC12     -1.181090     -1.713363      1.571828      0.000000
PC14 -16281.010287  15836.246701  16211.605969      0.000000   0   0
VC14     -1.547389      0.000669     -2.179115      0.000000
PE08  26766.560442   8137.551694   9668.288616      0.000000   0   0
VE08     -1.504455     -0.177252      2.755866      0.000000
PE09 -27815.216044   4848.898877   8909.281161      0.000000   0   0
VE09     -0.370154     -0.166318     -2.794384      0.000000
PE11 -17005.633778   2895.332929 -24060.791029      0.000000   0   0
VE11     -0.791184     -2.247862      0.527967      0.000000
PE19  -8011.391388 -16675.047635 -23102.944262      0.000000   0   0
VE19      2.513406      0.441368     -0.907149      0.000000
PE22  11788.933077  27040.664843  -2361.022190      0.000000   0   0
VE22     -0.343113     -0.732686     -3.007957      0.000000
PE24 -21047.827910  13327.563553  15980.099125      0.000000   0   0
VE24      1.356599     -1.587717      2.362937      0.000000
PE26   3785.361609 -22105.764541  19319.994669      0.000000   0   0
VE26      0.819825      2.191599      1.840297      0.000000
PE30  14803.136000   6576.863212 -24772.542374      0.000000   0   0
VE30     -1.680643      1.986989     -0.271143      0.000000
PG01  13644.759461 -13810.902647  17912.368686      0.000000   0   0
VG01     -0.253444      2.615996      1.816248      0.000000
PG02 -13876.419119 -10540.712765 -19685.334667      0.000000   0   0
VG02      0.511677     -2.428217      1.170707      0.000000
PG03  22722.125531 -13338.660920  -3311.315370      0.000000   0   0
VG03      0.099720      0.396782      3.136782      0.000000
PG04 -21582.038138 -15256.253619   3860.310433      0.000000   0   0
VG04      0.270832     -0.247620     -3.124086      0.000000
PG05 -22451.824877   -536.229063 -14412.663938      0.000000   0   0
VG05      1.960587     -1.057407     -2.333453      0.000000
PG06  -7890.947727 -21315.112996 -13738.724999      0.000000   0   0
VG06      0.555747     -1.335574      2.474352      0.000000
PG07   6446.110249 -24886.957696  -5556.005628      0.000000   0   0
VG07      0.167401      1.258992     -3.104469      0.000000
PG08  21229.733931    974.022431  16011.262451      0.000000   0   0
VG08      1.161324      1.323925     -2.165948      0.000000
PG09   4374.005380 -15258.696181 -21313.036224      0.000000   0   0
VG09      2.228604      1.773497     -0.587181      0.000000
PG10   3504.637284  15080.795462  21587.954267      0.000000   0   0
VG10     -2.596709      0.868221     -0.405954      0.000000
PG11  14211.256306  -8511.433482  20194.138320      0.000000   0   0
VG11      0.629886      2.783645      0.453258      0.000000
PG12 -24015.764777  10975.705654  -1622.663524      0.000000   0   0
VG12      0.179508     -0.396332      3.244699      0.000000
PG13 -22239.893329 -10685.376378   9619.594899      0.000000   0   0
VG13     -0.321165     -0.845792     -2.876019      0.000000
PG14  18885.136388  18493.789739   3610.561155      0.000000   0   0
VG14     -0.906060     -0.371947      3.127816      0.000000
PG15 -21530.665402    688.858437  15625.380622      0.000000   0   0
VG15     -1.184082     -1.304145     -2.092738      0.000000
PG16  22306.704719   1699.395120 -14716.654569      0.000000   0   0
VG16     -2.101741      0.792787     -2.416852      0.000000
PG17 -12319.271325 -20121.816856  12722.194806      0.000000   0   0
VG17      1.628843      1.163068      2.622511      0.000000
PG18  -8163.685591  18883.574701  17226.690759      0.000000   0   0
VG18     -1.868201      0.379913     -1.857135      0.000000
PG19 -17405.174897 -19100.992973   5084.984326      0.000000   0   0
VG19      1.080851      0.559782      3.139855      0.000000
PG20 -22806.709056  13631.955548    231.407805      0.000000   0   0
VG20      0.164247     -0.636742     -3.096252      0.000000
PG21  -3115.277148  26060.431618  -2517.904518      0.000000   0   0
VG21     -0.371224     -0.943150     -3.113776      0.000000
PG22  24573.931163  -9596.411734   3758.823792      0.000000   0   0
VG22     -0.670087      0.801631      3.035101      0.000000
PG23  15514.160844  -7100.220621 -20244.815485      0.000000   0   0
VG23      1.826496      1.726643      1.016948      0.000000
PG24 -14489.081888  10819.769873  19323.796127      0.000000   0   0
VG24      0.227494     -2.729782      1.389863      0.000000
PG25 -15832.259748  17007.222140 -12812.270472      0.000000   0   0
VG25     -1.282212      0.137744      2.626249      0.000000
PG26  14732.367763   8663.035380 -20337.677515      0.000000   0   0
VG26     -2.589029      1.089550     -1.127410      0.000000
PG27  23383.351856  11667.107602   5207.476554      0.000000   0   0
VG27     -0.062322      0.398549     -3.099624      0.000000
PG28    177.105211 -15617.979516  22112.739501      0.000000   0   0
VG28      2.528965     -0.609107     -0.688678      0.000000
PG29  -7447.404004  12922.973608 -21980.471249      0.000000   0   0
VG29     -2.103840     -1.966392     -0.244337      0.000000
PG30    345.340047 -26059.509454   4795.716019      0.000000   0   0
VG30      0.469361     -0.054867     -3.080348      0.000000
PG31   8304.168275  19807.388481 -15273.792519      0.000000   0   0
VG31     -0.646642      1.573819      2.296654      0.000000
PG32  12680.939488  19509.376318  12843.141330      0.000000   0   0
VG32     -1.774440     -1.064912      2.559209      0.000000
PR01 -22238.521614  -4271.085068 -11756.667734      0.000000   0   0
VR01      2.054058      0.037287     -3.056772      0.000000
PR02 -24098.803067   4608.005938   6934.468934      0.000000   0   0
VR02     -0.482787      0.055380     -3.411018      0.000000
PR03 -11203.909499  10376.697209  20457.533171      0.000000   0   0
VR03     -2.597109     -0.004785     -1.645104      0.000000
PR04   8595.652406   9953.501708  21872.669767      0.000000   0   0
VR04     -3.181966     -0.049982      1.121512      0.000000
PR05  22784.444492   3758.301432  10819.968141      0.000000   0   0
VR05     -1.937459     -0.033081      3.139413      0.000000
PR06  23767.246762  -5272.312990  -7678.356987      0.000000   0   0
VR06      0.593297     -0.033921      3.352052      0.000000
PR07  11001.860499 -10381.556016 -20516.021132      0.000000   0   0
VR07      2.624000      0.005136      1.613873      0.000000
PR08  -8010.661632 -10055.176532 -21983.465020      0.000000   0   0
VR08      3.203003      0.052543     -1.044489      0.000000
PR09  15441.668032 -13691.694496 -14916.506572      0.000000   0   0
VR09     -1.337883      2.056337     -2.720344      0.000000
PR10  11381.619187 -22754.661268   1009.560501      0.000000   0   0
VR10     -0.284941      0.245133     -3.602431      0.000000
PR11   1142.793242 -19097.691469  16868.444009      0.000000   0   0
VR11      1.013508     -1.717634     -2.441381      0.000000
PR12 -10943.249827  -2297.382124  22922.895013      0.000000   0   0
VR12      1.663073     -2.773919      0.393979      0.000000
PR13 -14949.037680  14131.601161  15081.036330      0.000000   0   0
VR13      1.317593     -2.090254      2.721073      0.000000
PR14 -10671.272394  23067.928799  -2641.359384      0.000000   0   0
VR14      0.178329     -0.050594      3.569484      0.000000
PR15  -2315.480310  19900.417103 -15715.066969      0.000000   0   0
VR15     -0.868820      1.598066      2.652462      0.000000
PR16  10061.368930   4189.309783 -23077.680368      0.000000   0   0
VR16     -1.642773      2.755636     -0.106796      0.000000
PR17   -844.828312  15986.765119 -19841.851769      0.000000   0   0
VR17     -1.411445     -2.657373     -1.833370      0.000000
PR18  10719.860477  22255.939592  -6470.580038      0.000000   0   0
VR18     -0.583351     -1.251930     -3.440444      0.000000
PR19  16144.319515  15882.271630  11725.135000      0.000000   0   0
VR19      0.646538      1.011272     -3.100788      0.000000
PR20  11871.825311   -452.101836  22578.333126      0.000000   0   0
VR20      1.440644      2.650605     -0.820592      0.000000
PR21    872.141313 -15828.384779  19989.524864      0.000000   0   0
VR21      1.422271      2.669777      1.804108      0.000000
PR22 -11143.442908 -22181.679846   5578.095463      0.000000   0   0
VR22      0.528766      1.147590      3.494520      0.000000
PR24 -12145.381022    202.705116 -22458.795652      0.000000   0   0
VR24     -1.465910     -2.597575      0.897236      0.000000
EOF
